1 27391U 02012A   03274.74770964 +.00003009 +00000-0 +10572-3 0  9997
2 27391 089.0042 279.9292 0015164 273.1006 086.8532 15.28945089085942
